     2.100          NAVIGATION                              RINEX VERSION / TYPE
fic2rin                                 05/04/2010 00:15:29 PGM / RUN BY / DATE
                                                            END OF HEADER
24 10  5  4  0  0  0.0  .284298323095D-03  .318323145621D-11  .000000000000D+00
     .220000000000D+02  .525000000000D+01  .487698886045D-08  .101444720611D+01
     .258907675743D-06  .569945969619D-02  .720657408237D-05  .515487157822D+04
     .172800000000D+06  .176951289177D-06 -.203174230702D+00  .372529029846D-07
     .949576424070D+00  .234500000000D+03 -.475879371909D+00 -.809819446516D-08
    -.177507393895D-09  .100000000000D+01  .158200000000D+04  .000000000000D+00
     .240000000000D+01  .000000000000D+00 -.139698386192D-08  .220000000000D+02
     .165606000000D+06  .400000000000D+01
26 10  5  4  0  0  0.0 -.472185201943D-04 -.477484718431D-11  .000000000000D+00
     .103000000000D+03  .763750000000D+02  .384837458596D-08 -.162127720585D+01
     .421516597271D-05  .194529617438D-01  .439584255219D-05  .515235811424D+04
     .172800000000D+06  .394880771637D-06  .190504859818D+01  .689178705215D-07
     .990544820213D+00  .302218750000D+03  .108672746926D+01 -.775496588260D-08
     .273939982128D-09  .100000000000D+01  .158200000000D+04  .000000000000D+00
     .240000000000D+01  .000000000000D+00 -.605359673500D-08  .103000000000D+03
     .165606000000D+06  .400000000000D+01
27 10  5  4  0  0  0.0  .148741528392D-03  .352429196937D-11  .000000000000D+00
     .580000000000D+02 -.390312500000D+02  .450554481688D-08  .360057859569D+00
    -.215135514736D-05  .215318645351D-01  .414997339249D-05  .515363168907D+04
     .172800000000D+06 -.253319740295D-06  .283396200950D+01 -.191852450371D-06
     .978371915449D+00  .316406250000D+03 -.142716092355D+01 -.856964267430D-08
    -.112861844006D-09  .100000000000D+01  .158200000000D+04  .000000000000D+00
     .240000000000D+01  .000000000000D+00 -.419095158577D-08  .580000000000D+02
     .165606000000D+06  .400000000000D+01
28 10  5  4  0  0  0.0 -.170874409378D-04  .909494701773D-12  .000000000000D+00
     .700000000000D+02 -.691562500000D+02  .429196449183D-08  .142220623507D+01
    -.376999378204D-05  .159479121212D-01  .907853245735D-05  .515367339325D+04
     .172800000000D+06 -.353902578354D-06 -.231457177322D+01 -.158324837685D-06
     .970008989179D+00  .216656250000D+03 -.195680875666D+01 -.798854704076D-08
     .217866217860D-10  .100000000000D+01  .158200000000D+04  .000000000000D+00
     .240000000000D+01  .000000000000D+00 -.107102096081D-07  .700000000000D+02
     .165606000000D+06  .400000000000D+01
29 10  5  4  0  0  0.0  .117308925837D-03  .284217094304D-11  .000000000000D+00
     .440000000000D+02 -.110937500000D+02  .451483091797D-08 -.274549652543D+01
    -.622123479843D-06  .305518822279D-02  .804848968983D-05  .515374735832D+04
     .172800000000D+06  .316649675369D-07 -.127079017475D+01  .409781932831D-07
     .960154752517D+00  .222500000000D+03 -.130178878125D+01 -.786068457192D-08
     .222509268404D-09  .100000000000D+01  .158200000000D+04  .000000000000D+00
     .240000000000D+01  .000000000000D+00 -.884756445885D-08  .440000000000D+02
     .165606000000D+06  .400000000000D+01
30 10  5  4  0  0  0.0  .239382497966D-03  .352429196937D-11  .000000000000D+00
     .280000000000D+02 -.884687500000D+02  .449054419205D-08  .187772415724D+01
    -.482238829136D-05  .121232462116D-01  .825338065624D-05  .515374844933D+04
     .172800000000D+06  .949949026108D-07 -.239291550704D+01 -.260770320892D-06
     .955865056851D+00  .215281250000D+03  .147805246419D+01 -.792032991353D-08
     .278583032673D-10  .100000000000D+01  .158200000000D+04  .000000000000D+00
     .240000000000D+01  .000000000000D+00 -.791624188423D-08  .280000000000D+02
     .165606000000D+06  .400000000000D+01
31 10  5  4  0  0  0.0 -.386163592339D-04  .216004991671D-11  .000000000000D+00
     .540000000000D+02 -.389375000000D+02  .438518266046D-08 -.204640361350D+01
    -.187754631042D-05  .743948738091D-02  .401027500629D-05  .515367955399D+04
     .172800000000D+06 -.894069671631D-07  .288974016027D+01  .221654772758D-06
     .976884355977D+00  .312218750000D+03 -.105771075687D+01 -.805354974839D-08
    -.557166065346D-10  .100000000000D+01  .158200000000D+04  .000000000000D+00
     .240000000000D+01  .000000000000D+00 -.130385160446D-07  .540000000000D+02
     .165606000000D+06  .400000000000D+01
32 10  5  4  0  0  0.0  .373879447579D-04 -.852651282912D-11  .000000000000D+00
     .320000000000D+02  .517812500000D+02  .439232581514D-08 -.123630094622D+01
     .273436307907D-05  .126689156750D-01  .911951065063D-05  .515374918938D+04
     .172800000000D+06 -.234693288803D-06  .878186596728D+00  .204890966415D-07
     .959565132162D+00  .208437500000D+03 -.988110359220D+00 -.807140763510D-08
     .714315468392D-11  .100000000000D+01  .158200000000D+04  .000000000000D+00
     .240000000000D+01  .000000000000D+00 -.325962901115D-08  .320000000000D+02
     .165606000000D+06  .400000000000D+01
